*******************************************************************************
Ephemeris / WWW_USER Tue Aug  5 12:00:59 2025 Pasadena, USA      / Horizons    
*******************************************************************************
Target body name: Titan (606)                     {source: sat441l}
Center body name: Earth (399)                     {source: DE441}
Center-site name: Mauna Kea
*******************************************************************************
Start time      : A.D. 2018-Aug-27 04:51:00.0000 UT      
Stop  time      : A.D. 2018-Aug-27 15:56:00.0000 UT      
Step-size       : 1 minutes
*******************************************************************************
Target pole/equ : IAU_TITAN                       {West-longitude positive}
Target radii    : 2575.15, 2574.78, 2574.47 km    {Equator_a, b, pole_c}       
Center geodetic : 204.5278, 19.8260847, 4.21024   {E-lon(deg),Lat(deg),Alt(km)}
Center cylindric: 204.5278, 6006.35451, 2151.0229 {E-lon(deg),Dxy(km),Dz(km)}
Center pole/equ : ITRF93                          {East-longitude positive}
Center radii    : 6378.137, 6378.137, 6356.752 km {Equator_a, b, pole_c}       
Target primary  : Saturn
Vis. interferer : MOON (R_eq= 1737.400) km        {source: DE441}
Rel. light bend : Sun                             {source: DE441}
Rel. lght bnd GM: 1.3271E+11 km^3/s^2                                          
Atmos refraction: NO (AIRLESS)
RA format       : HMS
Time format     : CAL 
Calendar mode   : Mixed Julian/Gregorian
RTS-only print  : NO       
EOP file        : eop.250804.p251031                                           
EOP coverage    : DATA-BASED 1962-JAN-20 TO 2025-AUG-04. PREDICTS-> 2025-OCT-30
Units conversion: 1 au= 149597870.700 km, c= 299792.458 km/s, 1 day= 86400.0 s 
Table cut-offs 1: Elevation (-90.0deg=NO ),Airmass (>38.000=NO), Daylight (YES)
Table cut-offs 2: Solar elongation (  0.0,180.0=NO ),Local Hour Angle( 0.0=NO )
Table cut-offs 3: RA/DEC angular rate (     0.0=NO )                           
*******************************************************************************
 Date__(UT)__HR:MN     R.A._________(ICRF)_________DEC
******************************************************
$$SOE
 2018-Aug-27 09:33  m  18 10 06.159157 -22 40 08.86092
 2018-Aug-27 09:34  m  18 10 06.158636 -22 40 08.85531
 2018-Aug-27 09:35  m  18 10 06.158116 -22 40 08.84971
 2018-Aug-27 09:36  m  18 10 06.157598 -22 40 08.84410
 2018-Aug-27 09:37  m  18 10 06.157082 -22 40 08.83849
 2018-Aug-27 09:38  m  18 10 06.156567 -22 40 08.83289
 2018-Aug-27 09:39  m  18 10 06.156055 -22 40 08.82729
 2018-Aug-27 09:40  m  18 10 06.155544 -22 40 08.82168
 2018-Aug-27 09:41  m  18 10 06.155035 -22 40 08.81608
 2018-Aug-27 09:42  m  18 10 06.154528 -22 40 08.81048
 2018-Aug-27 09:43  m  18 10 06.154022 -22 40 08.80488
 2018-Aug-27 09:44  m  18 10 06.153519 -22 40 08.79928
 2018-Aug-27 09:45  m  18 10 06.153017 -22 40 08.79368
 2018-Aug-27 09:46  m  18 10 06.152517 -22 40 08.78809
 2018-Aug-27 09:47  m  18 10 06.152018 -22 40 08.78249
 2018-Aug-27 09:48  m  18 10 06.151522 -22 40 08.77690
 2018-Aug-27 09:49  m  18 10 06.151027 -22 40 08.77131
 2018-Aug-27 09:50  m  18 10 06.150534 -22 40 08.76571
 2018-Aug-27 09:51  m  18 10 06.150043 -22 40 08.76012
 2018-Aug-27 09:52  m  18 10 06.149554 -22 40 08.75453
 2018-Aug-27 09:53  m  18 10 06.149067 -22 40 08.74894
 2018-Aug-27 09:54  m  18 10 06.148581 -22 40 08.74336
 2018-Aug-27 09:55  m  18 10 06.148097 -22 40 08.73777
 2018-Aug-27 09:56  m  18 10 06.147615 -22 40 08.73219
 2018-Aug-27 09:57  m  18 10 06.147135 -22 40 08.72660
 2018-Aug-27 09:58  m  18 10 06.146657 -22 40 08.72102
 2018-Aug-27 09:59  m  18 10 06.146180 -22 40 08.71544
 2018-Aug-27 10:00  m  18 10 06.145706 -22 40 08.70986
 2018-Aug-27 10:01  m  18 10 06.145233 -22 40 08.70428
 2018-Aug-27 10:02  m  18 10 06.144762 -22 40 08.69871
 2018-Aug-27 10:03  m  18 10 06.144293 -22 40 08.69313
 2018-Aug-27 10:04  m  18 10 06.143826 -22 40 08.68756
 2018-Aug-27 10:05  m  18 10 06.143360 -22 40 08.68199
 2018-Aug-27 10:06  m  18 10 06.142897 -22 40 08.67642
 2018-Aug-27 10:07  m  18 10 06.142435 -22 40 08.67085
 2018-Aug-27 10:08  m  18 10 06.141975 -22 40 08.66528
 2018-Aug-27 10:09  m  18 10 06.141517 -22 40 08.65972
 2018-Aug-27 10:10  m  18 10 06.141061 -22 40 08.65415
 2018-Aug-27 10:11  m  18 10 06.140607 -22 40 08.64859
 2018-Aug-27 10:12  m  18 10 06.140155 -22 40 08.64303
 2018-Aug-27 10:13  m  18 10 06.139704 -22 40 08.63747
 2018-Aug-27 10:14  m  18 10 06.139256 -22 40 08.63192
 2018-Aug-27 10:15  m  18 10 06.138809 -22 40 08.62636
 2018-Aug-27 10:16  m  18 10 06.138364 -22 40 08.62081
 2018-Aug-27 10:17  m  18 10 06.137921 -22 40 08.61526
 2018-Aug-27 10:18  m  18 10 06.137480 -22 40 08.60971
 2018-Aug-27 10:19  m  18 10 06.137041 -22 40 08.60416
 2018-Aug-27 10:20  m  18 10 06.136603 -22 40 08.59861
 2018-Aug-27 10:21  m  18 10 06.136168 -22 40 08.59307
 2018-Aug-27 10:22  m  18 10 06.135734 -22 40 08.58753
 2018-Aug-27 10:23  m  18 10 06.135303 -22 40 08.58199
 2018-Aug-27 10:24  m  18 10 06.134873 -22 40 08.57645
 2018-Aug-27 10:25  m  18 10 06.134445 -22 40 08.57092
 2018-Aug-27 10:26  m  18 10 06.134019 -22 40 08.56538
 2018-Aug-27 10:27  m  18 10 06.133595 -22 40 08.55985
 2018-Aug-27 10:28  m  18 10 06.133173 -22 40 08.55432
 2018-Aug-27 10:29  m  18 10 06.132753 -22 40 08.54879
 2018-Aug-27 10:30  m  18 10 06.132334 -22 40 08.54327
 2018-Aug-27 10:31  m  18 10 06.131918 -22 40 08.53775
 2018-Aug-27 10:32  m  18 10 06.131503 -22 40 08.53222
 2018-Aug-27 10:33  m  18 10 06.131091 -22 40 08.52671
 2018-Aug-27 10:34  m  18 10 06.130680 -22 40 08.52119
 2018-Aug-27 10:35  m  18 10 06.130271 -22 40 08.51568
 2018-Aug-27 10:36  m  18 10 06.129864 -22 40 08.51016
 2018-Aug-27 10:37  m  18 10 06.129459 -22 40 08.50466
 2018-Aug-27 10:38  m  18 10 06.129056 -22 40 08.49915
 2018-Aug-27 10:39  m  18 10 06.128655 -22 40 08.49364
 2018-Aug-27 10:40  m  18 10 06.128256 -22 40 08.48814
 2018-Aug-27 10:41  m  18 10 06.127859 -22 40 08.48264
 2018-Aug-27 10:42  m  18 10 06.127464 -22 40 08.47715
 2018-Aug-27 10:43  m  18 10 06.127070 -22 40 08.47165
 2018-Aug-27 10:44  m  18 10 06.126679 -22 40 08.46616
 2018-Aug-27 10:45  m  18 10 06.126289 -22 40 08.46067
 2018-Aug-27 10:46  m  18 10 06.125902 -22 40 08.45518
 2018-Aug-27 10:47  m  18 10 06.125516 -22 40 08.44970
 2018-Aug-27 10:48  m  18 10 06.125133 -22 40 08.44422
 2018-Aug-27 10:49  m  18 10 06.124751 -22 40 08.43874
 2018-Aug-27 10:50  m  18 10 06.124371 -22 40 08.43326
 2018-Aug-27 10:51  m  18 10 06.123993 -22 40 08.42779
 2018-Aug-27 10:52  m  18 10 06.123617 -22 40 08.42232
 2018-Aug-27 10:53  m  18 10 06.123243 -22 40 08.41685
 2018-Aug-27 10:54  m  18 10 06.122871 -22 40 08.41138
 2018-Aug-27 10:55  m  18 10 06.122501 -22 40 08.40592
 2018-Aug-27 10:56  m  18 10 06.122133 -22 40 08.40046
 2018-Aug-27 10:57  m  18 10 06.121767 -22 40 08.39501
 2018-Aug-27 10:58  m  18 10 06.121403 -22 40 08.38955
 2018-Aug-27 10:59  m  18 10 06.121041 -22 40 08.38410
 2018-Aug-27 11:00  m  18 10 06.120681 -22 40 08.37865
 2018-Aug-27 11:01  m  18 10 06.120322 -22 40 08.37321
 2018-Aug-27 11:02  m  18 10 06.119966 -22 40 08.36777
 2018-Aug-27 11:03  m  18 10 06.119612 -22 40 08.36233
 2018-Aug-27 11:04  m  18 10 06.119259 -22 40 08.35689
 2018-Aug-27 11:05  m  18 10 06.118909 -22 40 08.35146
 2018-Aug-27 11:06  m  18 10 06.118560 -22 40 08.34603
 2018-Aug-27 11:07  m  18 10 06.118214 -22 40 08.34061
 2018-Aug-27 11:08  m  18 10 06.117870 -22 40 08.33518
 2018-Aug-27 11:09  m  18 10 06.117527 -22 40 08.32976
 2018-Aug-27 11:10  m  18 10 06.117186 -22 40 08.32435
 2018-Aug-27 11:11  m  18 10 06.116848 -22 40 08.31893
 2018-Aug-27 11:12  m  18 10 06.116511 -22 40 08.31352
 2018-Aug-27 11:13  m  18 10 06.116177 -22 40 08.30812
 2018-Aug-27 11:14  m  18 10 06.115844 -22 40 08.30271
 2018-Aug-27 11:15  m  18 10 06.115513 -22 40 08.29731
 2018-Aug-27 11:16  m  18 10 06.115185 -22 40 08.29192
 2018-Aug-27 11:17  m  18 10 06.114858 -22 40 08.28653
 2018-Aug-27 11:18  m  18 10 06.114533 -22 40 08.28114
 2018-Aug-27 11:19  m  18 10 06.114211 -22 40 08.27575
 2018-Aug-27 11:20  m  18 10 06.113890 -22 40 08.27037
 2018-Aug-27 11:21  m  18 10 06.113571 -22 40 08.26499
 2018-Aug-27 11:22  m  18 10 06.113254 -22 40 08.25961
 2018-Aug-27 11:23  m  18 10 06.112940 -22 40 08.25424
 2018-Aug-27 11:24  m  18 10 06.112627 -22 40 08.24887
 2018-Aug-27 11:25  m  18 10 06.112316 -22 40 08.24351
 2018-Aug-27 11:26  m  18 10 06.112007 -22 40 08.23815
 2018-Aug-27 11:27  m  18 10 06.111700 -22 40 08.23279
 2018-Aug-27 11:28  m  18 10 06.111395 -22 40 08.22744
 2018-Aug-27 11:29  m  18 10 06.111093 -22 40 08.22209
 2018-Aug-27 11:30  m  18 10 06.110792 -22 40 08.21674
 2018-Aug-27 11:31  m  18 10 06.110493 -22 40 08.21140
 2018-Aug-27 11:32  m  18 10 06.110196 -22 40 08.20607
 2018-Aug-27 11:33  m  18 10 06.109901 -22 40 08.20073
 2018-Aug-27 11:34  m  18 10 06.109608 -22 40 08.19540
 2018-Aug-27 11:35  m  18 10 06.109318 -22 40 08.19008
 2018-Aug-27 11:36  m  18 10 06.109029 -22 40 08.18475
 2018-Aug-27 11:37  m  18 10 06.108742 -22 40 08.17944
 2018-Aug-27 11:38  m  18 10 06.108457 -22 40 08.17412
 2018-Aug-27 11:39  m  18 10 06.108174 -22 40 08.16881
 2018-Aug-27 11:40  m  18 10 06.107893 -22 40 08.16351
 2018-Aug-27 11:41  m  18 10 06.107614 -22 40 08.15821
 2018-Aug-27 11:42  m  18 10 06.107337 -22 40 08.15291
 2018-Aug-27 11:43  m  18 10 06.107063 -22 40 08.14761
 2018-Aug-27 11:44  m  18 10 06.106790 -22 40 08.14233
 2018-Aug-27 11:45  m  18 10 06.106519 -22 40 08.13704
 2018-Aug-27 11:46  m  18 10 06.106250 -22 40 08.13176
 2018-Aug-27 11:47  m  18 10 06.105983 -22 40 08.12648
 2018-Aug-27 11:48  m  18 10 06.105718 -22 40 08.12121
 2018-Aug-27 11:49  s  18 10 06.105456 -22 40 08.11595
 2018-Aug-27 11:50  m  18 10 06.105195 -22 40 08.11068
 2018-Aug-27 11:51  m  18 10 06.104936 -22 40 08.10542
 2018-Aug-27 11:52  m  18 10 06.104679 -22 40 08.10017
 2018-Aug-27 11:53  m  18 10 06.104424 -22 40 08.09492
